STARLINK-35983          
1 66902U 25283AA  26002.80084814 -.00391423  00000+0 -93123-2 0  9999
2 66902  53.1592 330.3937 0002263  20.9328 339.1770 15.42596535  5757
STARLINK-36077          
1 66903U 25283AB  26002.83335648 -.02017557  00000+0 -47197-1 0  9991
2 66903  53.1596 330.2063 0001370  98.1092  99.0817 15.45041797  5824
STARLINK-36059          
1 66904U 25283AC  26002.79714546 -.00408991  00000+0 -84852-2 0  9999
2 66904  53.1603 330.3691 0002209   2.6460 357.4560 15.46667717  5758
STARLINK-36075          
1 66905U 25283AD  26002.83335648 -.00364875  00000+0 -12502-1 0  9991
2 66905  53.1597 330.4294 0001384 101.9767 342.7330 15.31252665  5823
1998-067XS              
1 66906U 98067XS  26002.34561376  .00037434  00000+0  61956-3 0  9992
2 66906  51.6322  40.1398 0002475 312.2707  47.8073 15.51815107  4819
1998-067XT              
1 66907U 98067XT  26002.38542296  .00101426  00000+0  15025-2 0  9995
2 66907  51.6313  39.6563 0003866 354.2488   5.8458 15.54439264  4825
1998-067XU              
1 66908U 98067XU  26002.38433180  .00101317  00000+0  15029-2 0  9990
2 66908  51.6302  39.6478 0003912 349.5854  10.5055 15.54401853  4824
SILVERSAT               
1 66909U 98067XV  26002.38065524  .00112467  00000+0  16346-2 0  9995
2 66909  51.6305  39.6237 0003994 357.3938   2.7031 15.54908343  4824
1998-067XW              
1 66910U 98067XW  26002.63688836  .00102429  00000+0  15003-2 0  9998
2 66910  51.6309  38.3343 0003217 331.0556  29.0256 15.54745993  4862
1998-067XX              
1 66911U 98067XX  26002.82213046  .00124751  00000+0  17634-2 0  9991
2 66911  51.6316  37.3219 0003124 346.6622  13.4286 15.55614489  4883
1998-067XY              
1 66912U 98067XY  26002.39437033  .00076626  00000+0  11813-2 0  9998
2 66912  51.6316  39.7160 0003702 342.0500  18.0359 15.53471652  4818
2025-284A               
1 66913U 25284A   25365.05037874  .00009355  00000+0  77971-3 0  9996
2 66913  80.4033 106.9667 0016555 221.3672 138.6292 14.98433865  3886
